[
    {
        "Altitude(m)": 607895.8479607982,
        "Argument of Periapsis(deg)": 0.0,
        "Eccentricity": 0.0,
        "Inclination(deg)": 60.0,
        "Latitude(deg)": 40.99842241158943,
        "Longitude(deg)": 140.08871231228096,
        "Mean Anomaly(deg)": 130.9091,
        "RAAN(deg)": 90.0,
        "Satellite Name": "Test1 404",
        "Satellite Number": 404,
        "Semi-Major Axis(m)": 6980739.136638005,
        "Time(s)": 0
    },
    {
        "Altitude(m)": 607795.160481253,
        "Argument of Periapsis(deg)": 0.00010418945913296404,
        "Eccentricity": 0.0,
        "Inclination(deg)": 60.0,
        "Latitude(deg)": 40.530746005452755,
        "Longitude(deg)": 140.58530566195083,
        "Mean Anomaly(deg)": 131.52920614546187,
        "RAAN(deg)": 89.99957995086027,
        "Satellite Name": "Test1 404",
        "Satellite Number": 404,
        "Semi-Major Axis(m)": 6980739.136638005,
        "Time(s)": 10
    }
]